[
    {
        "Altitude(m)": 560079.8853386521,
        "Argument of Periapsis(deg)": 0.019868973332140504,
        "Eccentricity": 0.0,
        "Inclination(deg)": 53.0,
        "Latitude(deg)": -23.503542448280204,
        "Longitude(deg)": -116.40144371779866,
        "Mean Anomaly(deg)": 330.27487860273277,
        "RAAN(deg)": 4.97043010558405,
        "Satellite Name": "Starlink Shell 1 40",
        "Satellite Number": 40,
        "Semi-Major Axis(m)": 6931778.249405717,
        "Time(s)": 570
    },
    {
        "Altitude(m)": 559913.7636954692,
        "Argument of Periapsis(deg)": 0.02021755181165174,
        "Eccentricity": 0.0,
        "Inclination(deg)": 53.0,
        "Latitude(deg)": -23.027837257400893,
        "Longitude(deg)": -115.99752013428557,
        "Mean Anomaly(deg)": 330.9017098062895,
        "RAAN(deg)": 4.969911335506578,
        "Satellite Name": "Starlink Shell 1 40",
        "Satellite Number": 40,
        "Semi-Major Axis(m)": 6931778.249405717,
        "Time(s)": 580
    },
    {
        "Altitude(m)": 559748.7485180226,
        "Argument of Periapsis(deg)": 0.020566130291162974,
        "Eccentricity": 0.0,
        "Inclination(deg)": 53.0,
        "Latitude(deg)": -22.550845356437968,
        "Longitude(deg)": -115.59669793567781,
        "Mean Anomaly(deg)": 331.52854100984626,
        "RAAN(deg)": 4.9693925654291045,
        "Satellite Name": "Starlink Shell 1 40",
        "Satellite Number": 40,
        "Semi-Major Axis(m)": 6931778.249405717,
        "Time(s)": 590
    },
    {
        "Altitude(m)": 559584.8985644403,
        "Argument of Periapsis(deg)": 0.020914708770674213,
        "Eccentricity": 0.0,
        "Inclination(deg)": 53.0,
        "Latitude(deg)": -22.07260394353519,
        "Longitude(deg)": -115.19889256152224,
        "Mean Anomaly(deg)": 332.1553722134029,
        "RAAN(deg)": 4.968873795351632,
        "Satellite Name": "Starlink Shell 1 40",
        "Satellite Number": 40,
        "Semi-Major Axis(m)": 6931778.249405717,
        "Time(s)": 600
    },
    {
        "Altitude(m)": 559422.2719245806,
        "Argument of Periapsis(deg)": 0.021263287250185448,
        "Eccentricity": 0.0,
        "Inclination(deg)": 53.0,
        "Latitude(deg)": -21.59314950927933,
        "Longitude(deg)": -114.80402060870993,
        "Mean Anomaly(deg)": 332.78220341695965,
        "RAAN(deg)": 4.9683550252741595,
        "Satellite Name": "Starlink Shell 1 40",
        "Satellite Number": 40,
        "Semi-Major Axis(m)": 6931778.249405717,
        "Time(s)": 610
    },
    {
        "Altitude(m)": 559260.9259940638,
        "Argument of Periapsis(deg)": 0.021611865729696686,
        "Eccentricity": 0.0,
        "Inclination(deg)": 53.0,
        "Latitude(deg)": -21.11251786006782,
        "Longitude(deg)": -114.41199930605931,
        "Mean Anomaly(deg)": 333.40903462051637,
        "RAAN(deg)": 4.967836255196686,
        "Satellite Name": "Starlink Shell 1 40",
        "Satellite Number": 40,
        "Semi-Major Axis(m)": 6931778.249405717,
        "Time(s)": 620
    },
    {
        "Altitude(m)": 559100.9174486118,
        "Argument of Periapsis(deg)": 0.02196044420920792,
        "Eccentricity": 0.0,
        "Inclination(deg)": 53.0,
        "Latitude(deg)": -20.630744140972645,
        "Longitude(deg)": -114.02274766903847,
        "Mean Anomaly(deg)": 334.0358658240731,
        "RAAN(deg)": 4.967317485119214,
        "Satellite Name": "Starlink Shell 1 40",
        "Satellite Number": 40,
        "Semi-Major Axis(m)": 6931778.249405717,
        "Time(s)": 630
    },
    {
        "Altitude(m)": 558942.3022187656,
        "Argument of Periapsis(deg)": 0.02230902268871916,
        "Eccentricity": 0.0,
        "Inclination(deg)": 53.0,
        "Latitude(deg)": -20.14786285811008,
        "Longitude(deg)": -113.6361851322893,
        "Mean Anomaly(deg)": 334.6626970276298,
        "RAAN(deg)": 4.96679871504174,
        "Satellite Name": "Starlink Shell 1 40",
        "Satellite Number": 40,
        "Semi-Major Axis(m)": 6931778.249405717,
        "Time(s)": 640
    },
    {
        "Altitude(m)": 558785.1354649559,
        "Argument of Periapsis(deg)": 0.022657601168230398,
        "Eccentricity": 0.0,
        "Inclination(deg)": 53.0,
        "Latitude(deg)": -19.66390790052197,
        "Longitude(deg)": -113.25223270295632,
        "Mean Anomaly(deg)": 335.2895282311865,
        "RAAN(deg)": 4.966279944964269,
        "Satellite Name": "Starlink Shell 1 40",
        "Satellite Number": 40,
        "Semi-Major Axis(m)": 6931778.249405717,
        "Time(s)": 650
    },
    {
        "Altitude(m)": 558629.4715529056,
        "Argument of Periapsis(deg)": 0.023006179647741636,
        "Eccentricity": 0.0,
        "Inclination(deg)": 53.0,
        "Latitude(deg)": -19.17891256157859,
        "Longitude(deg)": -112.8708124324668,
        "Mean Anomaly(deg)": 335.9163594347432,
        "RAAN(deg)": 4.965761174886795,
        "Satellite Name": "Starlink Shell 1 40",
        "Satellite Number": 40,
        "Semi-Major Axis(m)": 6931778.249405717,
        "Time(s)": 660
    },
    {
        "Altitude(m)": 558475.3640294463,
        "Argument of Periapsis(deg)": 0.023354758127252868,
        "Eccentricity": 0.0,
        "Inclination(deg)": 53.0,
        "Latitude(deg)": -18.692909559910344,
        "Longitude(deg)": -112.49184688780676,
        "Mean Anomaly(deg)": 336.54319063829996,
        "RAAN(deg)": 4.965242404809322,
        "Satellite Name": "Starlink Shell 1 40",
        "Satellite Number": 40,
        "Semi-Major Axis(m)": 6931778.249405717,
        "Time(s)": 670
    },
    {
        "Altitude(m)": 558322.8655987363,
        "Argument of Periapsis(deg)": 0.023703336606764106,
        "Eccentricity": 0.0,
        "Inclination(deg)": 53.0,
        "Latitude(deg)": -18.20593105987932,
        "Longitude(deg)": -112.11526013523424,
        "Mean Anomaly(deg)": 337.1700218418566,
        "RAAN(deg)": 4.9647236347318495,
        "Satellite Name": "Starlink Shell 1 40",
        "Satellite Number": 40,
        "Semi-Major Axis(m)": 6931778.249405717,
        "Time(s)": 680
    },
    {
        "Altitude(m)": 558172.0280988396,
        "Argument of Periapsis(deg)": 0.024051915086275345,
        "Eccentricity": 0.0,
        "Inclination(deg)": 53.0,
        "Latitude(deg)": -17.718008691599632,
        "Longitude(deg)": -111.74097721073943,
        "Mean Anomaly(deg)": 337.79685304541334,
        "RAAN(deg)": 4.964204864654377,
        "Satellite Name": "Starlink Shell 1 40",
        "Satellite Number": 40,
        "Semi-Major Axis(m)": 6931778.249405717,
        "Time(s)": 690
    },
    {
        "Altitude(m)": 558022.902478772,
        "Argument of Periapsis(deg)": 0.024400493565786583,
        "Eccentricity": 0.0,
        "Inclination(deg)": 53.0,
        "Latitude(deg)": -17.22917357051932,
        "Longitude(deg)": -111.36892359018333,
        "Mean Anomaly(deg)": 338.4236842489701,
        "RAAN(deg)": 4.963686094576904,
        "Satellite Name": "Starlink Shell 1 40",
        "Satellite Number": 40,
        "Semi-Major Axis(m)": 6931778.249405717,
        "Time(s)": 700
    },
    {
        "Altitude(m)": 557875.5387759425,
        "Argument of Periapsis(deg)": 0.024749072045297815,
        "Eccentricity": 0.0,
        "Inclination(deg)": 53.0,
        "Latitude(deg)": -16.739456316571168,
        "Longitude(deg)": -110.99902617203793,
        "Mean Anomaly(deg)": 339.0505154525268,
        "RAAN(deg)": 4.963167324499431,
        "Satellite Name": "Starlink Shell 1 40",
        "Satellite Number": 40,
        "Semi-Major Axis(m)": 6931778.249405717,
        "Time(s)": 710
    },
    {
        "Altitude(m)": 557729.9860940662,
        "Argument of Periapsis(deg)": 0.025097650524809053,
        "Eccentricity": 0.0,
        "Inclination(deg)": 53.0,
        "Latitude(deg)": -16.24888707290708,
        "Longitude(deg)": -110.63121274702516,
        "Mean Anomaly(deg)": 339.6773466560835,
        "RAAN(deg)": 4.962648554421958,
        "Satellite Name": "Starlink Shell 1 40",
        "Satellite Number": 40,
        "Semi-Major Axis(m)": 6931778.249405717,
        "Time(s)": 720
    },
    {
        "Altitude(m)": 557586.2925814966,
        "Argument of Periapsis(deg)": 0.02544622900432029,
        "Eccentricity": 0.0,
        "Inclination(deg)": 53.0,
        "Latitude(deg)": -15.757495524226453,
        "Longitude(deg)": -110.26541146757106,
        "Mean Anomaly(deg)": 340.3041778596402,
        "RAAN(deg)": 4.962129784344485,
        "Satellite Name": "Starlink Shell 1 40",
        "Satellite Number": 40,
        "Semi-Major Axis(m)": 6931778.249405717,
        "Time(s)": 730
    },
    {
        "Altitude(m)": 557444.505410052,
        "Argument of Periapsis(deg)": 0.02579480748383153,
        "Eccentricity": 0.0,
        "Inclination(deg)": 53.0,
        "Latitude(deg)": -15.265310914708431,
        "Longitude(deg)": -109.9015518299855,
        "Mean Anomaly(deg)": 340.93100906319694,
        "RAAN(deg)": 4.961611014267013,
        "Satellite Name": "Starlink Shell 1 40",
        "Satellite Number": 40,
        "Semi-Major Axis(m)": 6931778.249405717,
        "Time(s)": 740
    },
    {
        "Altitude(m)": 557304.6707543156,
        "Argument of Periapsis(deg)": 0.026143385963342765,
        "Eccentricity": 0.0,
        "Inclination(deg)": 53.0,
        "Latitude(deg)": -14.772362065562872,
        "Longitude(deg)": -109.53956414365348,
        "Mean Anomaly(deg)": 341.55784026675366,
        "RAAN(deg)": 4.9610922441895395,
        "Satellite Name": "Starlink Shell 1 40",
        "Satellite Number": 40,
        "Semi-Major Axis(m)": 6931778.249405717,
        "Time(s)": 750
    }
]